FENGYUN 1C DEB          
1 29808U 99025DA  24366.63443171  .00062377  00000+0  11821-1 0  9990
2 29808  99.0425 234.0312 0015199 113.4602 271.4918 14.63861756930950
FENGYUN 1C DEB          
1 29809U 99025DB  24366.12735274  .00004322  00000+0  11413-2 0  9997
2 29809  98.8150 309.1159 0117556 308.1002  61.9327 14.45409633944585
FENGYUN 1C DEB          
1 29810U 99025DC  24366.80549084  .00003277  00000+0  12991-2 0  9996
2 29810  99.2352  17.8379 0066708 294.2094 240.3108 14.28379059934376
FENGYUN 1C DEB          
1 29811U 99025DD  24366.82510600  .00230121  00000+0  21723-1 0  9993
2 29811  99.0006 213.1621 0022632  86.1429 274.2373 14.92290965930623
FENGYUN 1C DEB          
1 29812U 99025DE  24365.56518869  .00006135  00000+0  38094-2 0  9995
2 29812  98.3865 217.1175 0143345 227.2030 159.9903 14.00410887913106
FENGYUN 1C DEB          
1 29813U 99025DF  24366.88120578  .00000491  00000+0  30620-3 0  9995
2 29813  98.7573  30.8392 0013393 121.4771   3.2781 14.09308244923887
FENGYUN 1C DEB          
1 29815U 99025DH  24366.45683547  .00008151  00000+0  13209-2 0  9994
2 29815  98.0657  17.2998 0195168 143.0373 218.4461 14.59541204947965
FENGYUN 1C DEB          
1 29816U 99025DJ  24366.37303593  .00012273  00000+0  27064-2 0  9990
2 29816  99.0248 200.6386 0252513 123.4571 358.6490 14.39589933931952
FENGYUN 1C DEB          
1 29817U 99025DK  24366.26097468  .00001969  00000+0  10654-2 0  9997
2 29817  98.5389   4.5229 0010995 285.1179  86.2008 14.13610915924998
FENGYUN 1C DEB          
1 29818U 99025DL  24366.47156267  .00001044  00000+0  64715-3 0  9996
2 29818  98.7682 250.5013 0114062 276.9872 258.3621 14.04162222919494
FENGYUN 1C DEB          
1 29819U 99025DM  24366.25653866  .00002484  00000+0  14219-2 0  9992
2 29819  98.7036 358.9283 0190690 316.2608  53.3738 14.01663190917651
FENGYUN 1C DEB          
1 29820U 99025DN  24366.79571525  .00002279  00000+0  14911-2 0  9995
2 29820  98.8394  18.2898 0072935 122.5282  51.0984 14.01845411917113
FENGYUN 1C DEB          
1 29821U 99025DP  24366.62063785  .00008454  00000+0  25071-2 0  9992
2 29821  98.9200  58.7098 0386008  18.5705 132.0782 14.08078177916349
FENGYUN 1C DEB          
1 29827U 99025DV  24366.25920521  .00002196  00000+0  10310-2 0  9994
2 29827  98.5818   0.7183 0024841 243.4009 128.0510 14.20928166929410
FENGYUN 1C DEB          
1 29828U 99025DW  24366.41907523  .00003125  00000+0  18685-2 0  9996
2 29828  98.8031  55.3091 0060762  52.3181 319.5726 14.06900819918654
FENGYUN 1C DEB          
1 29832U 99025EA  24366.53773303  .00003191  00000+0  57760-3 0  9992
2 29832  98.8130  92.4286 0195031 258.1338  99.7929 14.55559050952173
FENGYUN 1C DEB          
1 29833U 99025EB  24365.73357818  .00028029  00000+0  33522-2 0  9999
2 29833  99.0457 294.3598 0110416 276.9707  81.8953 14.79803409954436
FENGYUN 1C DEB          
1 29835U 99025ED  24366.53803302  .00000718  00000+0  19592-3 0  9991
2 29835  98.9939 109.1268 0168208 344.3884 145.2543 14.42901402945012
FENGYUN 1C DEB          
1 29836U 99025EE  24366.07799975  .00010340  00000+0  21881-2 0  9996
2 29836  98.1850 104.0742 0160515 192.2802 295.4045 14.51644683585213
FENGYUN 1C DEB          
1 29841U 99025EK  24366.52141417  .00006428  00000+0  14445-2 0  9994
2 29841  98.7862 294.6828 0204722 291.6241 121.2973 14.44718557943217
FENGYUN 1C DEB          
1 29842U 99025EL  24366.89342282  .00018294  00000+0  38766-2 0  9994
2 29842  98.5910  77.8324 0119116 148.8083 272.6907 14.54855547943154
