OBJECT_NAME,OBJECT_ID,EPOCH,MEAN_MOTION,ECCENTRICITY,INCLINATION,RA_OF_ASC_NODE,ARG_OF_PERICENTER,MEAN_ANOMALY,EPHEMERIS_TYPE,CLASSIFICATION_TYPE,NORAD_CAT_ID,ELEMENT_SET_NO,REV_AT_EPOCH,BSTAR,MEAN_MOTION_DOT,MEAN_MOTION_DDOT,SEMIMAJOR_AXIS,DEBRIS_TYPE,ORBITAL_PERIOD,ORBITAL_PERIOD_HOURS,ALTITUDE,PERIGEE,APOGEE
FENGYUN 1C DEB,1999-025DA,2024-12-31T15:13:34.899744,14.63861756,0.0015199,99.0425,234.0312,113.4602,271.4918,0,U,29808,999,93095,0.011821,0.00062377,0.0,7058.869149690482,FENGYUN 1C,5902.199953502552,1.639499987084042,687.8691496904821,7048.140374469867,7069.597924911096
FENGYUN 1C DEB,1999-025DB,2024-12-31T03:03:23.276736,14.45409633,0.0117556,98.815,309.1159,308.1002,61.9327,0,U,29809,999,94458,0.0011413,4.322e-05,0.0,7118.817807506507,FENGYUN 1C,5977.54753458002,1.660429870716672,747.817807506507,7035.131832888584,7202.503782124431
FENGYUN 1C DEB,1999-025DC,2024-12-31T19:19:54.408576,14.28379059,0.0066708,99.2352,17.8379,294.2094,240.3108,0,U,29810,999,93437,0.0012991,3.277e-05,0.0,7175.291099698634,FENGYUN 1C,6048.8178776900995,1.68022718824725,804.2910996986338,7127.426167830764,7223.156031566504
FENGYUN 1C DEB,1999-025DD,2024-12-31T19:48:09.158400,14.92290965,0.0022632,99.0006,213.1621,86.1429,274.2373,0,U,29811,999,93062,0.021723,0.00230121,0.0,6968.9310596313535,FENGYUN 1C,5789.758827761422,1.6082663410448395,597.9310596313535,6953.158974857196,6984.703144405511
FENGYUN 1C DEB,1999-025DE,2024-12-30T13:33:52.302816,14.00410887,0.0143345,98.3865,217.1175,227.203,159.9903,0,U,29812,999,91310,0.0038094,6.135e-05,0.0,7270.509658878719,FENGYUN 1C,6169.621265017602,1.7137836847271117,899.5096588787192,7166.290538173522,7374.728779583916
FENGYUN 1C DEB,1999-025DF,2024-12-31T21:08:56.179392,14.09308244,0.0013393,98.7573,30.8392,121.4771,3.2781,0,U,29813,999,92388,0.0003062,4.91e-06,0.0,7239.876863021178,FENGYUN 1C,6130.670720888341,1.7029640891356503,868.876863021178,7230.180495938534,7249.5732301038215
FENGYUN 1C DEB,1999-025DH,2024-12-31T10:57:50.584608,14.59541204,0.0195168,98.0657,17.2998,143.0373,218.4461,0,U,29815,999,94796,0.0013209,8.151e-05,0.0,7072.792787263365,FENGYUN 1C,5919.6717191119205,1.644353255308867,701.7927872633654,6934.754504992904,7210.831069533826
FENGYUN 1C DEB,1999-025DJ,2024-12-31T08:57:10.304352,14.39589933,0.0252513,99.0248,200.6386,123.4571,358.649,0,U,29816,999,93195,0.0027064,0.00012273,0.0,7137.990637804291,FENGYUN 1C,6001.712425282265,1.6671423403561847,766.9906378042906,6957.7470948119035,7318.234180796679
FENGYUN 1C DEB,1999-025DK,2024-12-31T06:15:48.212352,14.13610915,0.0010995,98.5389,4.5229,285.1179,86.2008,0,U,29817,999,92499,0.0010654,1.969e-05,0.0,7225.1785082261085,FENGYUN 1C,6112.010523204939,1.6977807008902608,854.1785082261085,7217.234424456314,7233.122591995903
FENGYUN 1C DEB,1999-025DL,2024-12-31T11:19:03.014688,14.04162222,0.0114062,98.7682,250.5013,276.9872,258.3621,0,U,29818,999,91949,0.00064715,1.044e-05,0.0,7257.554709400245,FENGYUN 1C,6153.138613778603,1.7092051704940563,886.554709400245,7174.773588873883,7340.335829926606
FENGYUN 1C DEB,1999-025DM,2024-12-31T06:09:24.940224,14.0166319,0.019069,98.7036,358.9283,316.2608,53.3738,0,U,29819,999,91765,0.0014219,2.484e-05,0.0,7266.178500751925,FENGYUN 1C,6164.109074018961,1.7122525205608226,895.1785007519247,7127.619742921086,7404.737258582763
FENGYUN 1C DEB,1999-025DN,2024-12-31T19:05:49.797600,14.01845411,0.0072935,98.8394,18.2898,122.5282,51.0984,0,U,29820,999,91711,0.0014911,2.279e-05,0.0,7265.5488169610035,FENGYUN 1C,6163.307822960346,1.7120299508223185,894.5488169610035,7212.557536664499,7318.540097257509
FENGYUN 1C DEB,1999-025DP,2024-12-31T14:53:43.110240,14.08078177,0.0386008,98.92,58.7098,18.5705,132.0782,0,U,29821,999,91634,0.0025071,8.454e-05,0.0,7244.092650490891,FENGYUN 1C,6136.026343796792,1.7044517621657758,873.0926504908912,6964.464878907823,7523.7204220739595
FENGYUN 1C DEB,1999-025DV,2024-12-31T06:13:15.330144,14.20928166,0.0024841,98.5818,0.7183,243.4009,128.051,0,U,29827,999,92941,0.001031,2.196e-05,0.0,7200.352517457943,FENGYUN 1C,6080.53594469839,1.6890377624162196,829.3525174579427,7182.466121769326,7218.23891314656
FENGYUN 1C DEB,1999-025DW,2024-12-31T10:03:28.099872,14.06900819,0.0060762,98.8031,55.3091,52.3181,319.5726,0,U,29828,999,91865,0.0018685,3.125e-05,0.0,7248.133542453271,FENGYUN 1C,6141.161247129363,1.7058781242026009,877.1335424532708,7204.0924334226165,7292.174651483926
FENGYUN 1C DEB,1999-025EA,2024-12-31T12:54:20.133792,14.5555905,0.0195031,98.813,92.4286,258.1338,99.7929,0,U,29832,999,95217,0.0005776,3.191e-05,0.0,7085.686858576324,FENGYUN 1C,5935.866901584901,1.648851917106917,714.6868585763241,6947.493999204824,7223.879717947825
FENGYUN 1C DEB,1999-025EB,2024-12-30T17:36:21.154752,14.79803409,0.0110416,99.0457,294.3598,276.9707,81.8953,0,U,29833,999,95443,0.0033522,0.00028029,0.0,7008.081745703145,FENGYUN 1C,5838.616626809894,1.6218379518916373,637.0817457031453,6930.70131029979,7085.462181106501
FENGYUN 1C DEB,1999-025ED,2024-12-31T12:54:46.052928,14.42901402,0.0168208,98.9939,109.1268,344.3884,145.2543,0,U,29835,999,94501,0.00019592,7.18e-06,0.0,7127.065296594121,FENGYUN 1C,5987.938452496813,1.6633162368046701,756.0652965941208,7007.18235665317,7246.948236535071
FENGYUN 1C DEB,1999-025EE,2024-12-31T01:52:19.178400,14.51644683,0.0160515,98.185,104.0742,192.2802,295.4045,0,U,29836,999,58521,0.0021881,0.0001034,0.0,7098.4188670894455,FENGYUN 1C,5951.8729957676305,1.6532980543798974,727.4188670894455,6984.47859664436,7212.359137534532
FENGYUN 1C DEB,1999-025EK,2024-12-31T12:30:50.184288,14.44718557,0.0204722,98.7862,294.6828,291.6241,121.2973,0,U,29841,999,94321,0.0014445,6.428e-05,0.0,7121.087800730653,FENGYUN 1C,5980.406873251897,1.6612241314588603,750.0878007306528,6975.303467056535,7266.872134404771
FENGYUN 1C DEB,1999-025EL,2024-12-31T21:26:31.731648,14.54855547,0.0119116,98.591,77.8324,148.8083,272.6907,0,U,29842,999,94315,0.0038766,0.00018294,0.0,7087.970888456277,FENGYUN 1C,5938.737221034467,1.6496492280651298,716.970888456277,7003.541814421341,7172.399962491212
